{"type": "FeatureCollection", "features": [{"type": "Feature", "properties": {"norad_id": 24876, "name": "GPS BIIR-2  (PRN 13)", "group": "gps-ops", "lat": 41.46025716024083, "lon": 142.40829121511027, "alt_km": 19921.02180747215, "timestamp": "2025-12-17T07:00:47.161503+00:00", "meta": {"OBJECT_NAME": "GPS BIIR-2  (PRN 13)", "OBJECT_ID": "1997-035A", "EPOCH": "2025-12-16T17:18:41.060448", "MEAN_MOTION": 2.00563709, "ECCENTRICITY": 0.00967839, "INCLINATION": 55.8971, "RA_OF_ASC_NODE": 105.7131, "ARG_OF_PERICENTER": 56.9876, "MEAN_ANOMALY": 303.9087, "EPHEMERIS_TYPE": 0, "CLASSIFICATION_TYPE": "U", "NORAD_CAT_ID": 24876, "ELEMENT_SET_NO": 999, "REV_AT_EPOCH": 20829, "BSTAR": 0, "MEAN_MOTION_DOT": -2.3e-07, "MEAN_MOTION_DDOT": 0}, "tle": {"line1": "1 24876U 97035A   25350.72130857 -.00000023  00000+0  00000+0 0  9993", "line2": "2 24876  55.8971 105.7131 0096783  56.9876 303.9087  2.00563709208299"}}, "geometry": {"type": "Point", "coordinates": [142.40829121511027, 41.46025716024083]}}, {"type": "Feature", "properties": {"norad_id": 26360, "name": "GPS BIIR-4  (PRN 20)", "group": "gps-ops", "lat": 28.294823284037918, "lon": -175.43344478211648, "alt_km": 20191.969826532204, "timestamp": "2025-12-17T07:00:47.161555+00:00", "meta": {"OBJECT_NAME": "GPS BIIR-4  (PRN 20)", "OBJECT_ID": "2000-025A", "EPOCH": "2025-12-16T19:52:20.548704", "MEAN_MOTION": 2.00567475, "ECCENTRICITY": 0.00388903, "INCLINATION": 55.0476, "RA_OF_ASC_NODE": 26.6725, "ARG_OF_PERICENTER": 242.3816, "MEAN_ANOMALY": 287.5593, "EPHEMERIS_TYPE": 0, "CLASSIFICATION_TYPE": "U", "NORAD_CAT_ID": 26360, "ELEMENT_SET_NO": 999, "REV_AT_EPOCH": 18761, "BSTAR": 0, "MEAN_MOTION_DOT": -8.3e-07, "MEAN_MOTION_DDOT": 0}, "tle": {"line1": "1 26360U 00025A   25350.82801561 -.00000083  00000+0  00000+0 0  9990", "line2": "2 26360  55.0476  26.6725 0038890 242.3816 287.5593  2.00567475187616"}}, "geometry": {"type": "Point", "coordinates": [-175.43344478211648, 28.294823284037918]}}, {"type": "Feature", "properties": {"norad_id": 26407, "name": "GPS BIIR-5  (PRN 22)", "group": "gps-ops", "lat": -11.69910075527844, "lon": -145.97321965754358, "alt_km": 19940.55793487038, "timestamp": "2025-12-17T07:00:47.161575+00:00", "meta": {"OBJECT_NAME": "GPS BIIR-5  (PRN 22)", "OBJECT_ID": "2000-040A", "EPOCH": "2025-12-16T19:48:16.745184", "MEAN_MOTION": 2.00568089, "ECCENTRICITY": 0.01257985, "INCLINATION": 54.8898, "RA_OF_ASC_NODE": 222.4065, "ARG_OF_PERICENTER": 301.879, "MEAN_ANOMALY": 65.6542, "EPHEMERIS_TYPE": 0, "CLASSIFICATION_TYPE": "U", "NORAD_CAT_ID": 26407, "ELEMENT_SET_NO": 999, "REV_AT_EPOCH": 18629, "BSTAR": 0, "MEAN_MOTION_DOT": 6.6e-07, "MEAN_MOTION_DDOT": 0}, "tle": {"line1": "1 26407U 00040A   25350.82519381  .00000066  00000+0  00000+0 0  9995", "line2": "2 26407  54.8898 222.4065 0125798 301.8790  65.6542  2.00568089186296"}}, "geometry": {"type": "Point", "coordinates": [-145.97321965754358, -11.69910075527844]}}, {"type": "Feature", "properties": {"norad_id": 27663, "name": "GPS BIIR-8  (PRN 16)", "group": "gps-ops", "lat": 43.818752176925756, "lon": -0.15598254654905913, "alt_km": 20039.272599761007, "timestamp": "2025-12-17T07:00:47.161590+00:00", "meta": {"OBJECT_NAME": "GPS BIIR-8  (PRN 16)", "OBJECT_ID": "2003-005A", "EPOCH": "2025-12-16T09:06:39.754656", "MEAN_MOTION": 2.00570777, "ECCENTRICITY": 0.01475932, "INCLINATION": 54.9225, "RA_OF_ASC_NODE": 222.2335, "ARG_OF_PERICENTER": 51.8511, "MEAN_ANOMALY": 129.8718, "EPHEMERIS_TYPE": 0, "CLASSIFICATION_TYPE": "U", "NORAD_CAT_ID": 27663, "ELEMENT_SET_NO": 999, "REV_AT_EPOCH": 16764, "BSTAR": 0, "MEAN_MOTION_DOT": 6.3e-07, "MEAN_MOTION_DDOT": 0}, "tle": {"line1": "1 27663U 03005A   25350.37962679  .00000063  00000+0  00000+0 0  9993", "line2": "2 27663  54.9225 222.2335 0147593  51.8511 129.8718  2.00570777167647"}}, "geometry": {"type": "Point", "coordinates": [-0.15598254654905913, 43.818752176925756]}}, {"type": "Feature", "properties": {"norad_id": 28190, "name": "GPS BIIR-11 (PRN 19)", "group": "gps-ops", "lat": -53.67736814880466, "lon": -149.232905997129, "alt_km": 20296.84780189651, "timestamp": "2025-12-17T07:00:47.161605+00:00", "meta": {"OBJECT_NAME": "GPS BIIR-11 (PRN 19)", "OBJECT_ID": "2004-009A", "EPOCH": "2025-12-14T15:49:47.343936", "MEAN_MOTION": 2.00560762, "ECCENTRICITY": 0.01083648, "INCLINATION": 54.9839, "RA_OF_ASC_NODE": 283.1415, "ARG_OF_PERICENTER": 167.6892, "MEAN_ANOMALY": 10.6801, "EPHEMERIS_TYPE": 0, "CLASSIFICATION_TYPE": "U", "NORAD_CAT_ID": 28190, "ELEMENT_SET_NO": 999, "REV_AT_EPOCH": 15924, "BSTAR": 0, "MEAN_MOTION_DOT": -7.9e-07, "MEAN_MOTION_DDOT": 0}, "tle": {"line1": "1 28190U 04009A   25348.65957574 -.00000079  00000+0  00000+0 0  9998", "line2": "2 28190  54.9839 283.1415 0108364 167.6892  10.6801  2.00560762159240"}}, "geometry": {"type": "Point", "coordinates": [-149.232905997129, -53.67736814880466]}}, {"type": "Feature", "properties": {"norad_id": 28474, "name": "GPS BIIR-13 (PRN 02)", "group": "gps-ops", "lat": -15.927885514165554, "lon": -39.219298664320455, "alt_km": 19793.205625177547, "timestamp": "2025-12-17T07:00:47.161619+00:00", "meta": {"OBJECT_NAME": "GPS BIIR-13 (PRN 02)", "OBJECT_ID": "2004-045A", "EPOCH": "2025-12-16T10:54:46.948320", "MEAN_MOTION": 2.00569788, "ECCENTRICITY": 0.01708358, "INCLINATION": 55.2388, "RA_OF_ASC_NODE": 332.2562, "ARG_OF_PERICENTER": 309.4167, "MEAN_ANOMALY": 145.3264, "EPHEMERIS_TYPE": 0, "CLASSIFICATION_TYPE": "U", "NORAD_CAT_ID": 28474, "ELEMENT_SET_NO": 999, "REV_AT_EPOCH": 15476, "BSTAR": 0, "MEAN_MOTION_DOT": -9.1e-07, "MEAN_MOTION_DDOT": 0}, "tle": {"line1": "1 28474U 04045A   25350.45471005 -.00000091  00000+0  00000+0 0  9998", "line2": "2 28474  55.2388 332.2562 0170835 309.4167 145.3264  2.00569788154768"}}, "geometry": {"type": "Point", "coordinates": [-39.219298664320455, -15.927885514165554]}}, {"type": "Feature", "properties": {"norad_id": 28874, "name": "GPS BIIRM-1 (PRN 17)", "group": "gps-ops", "lat": -45.99573900715888, "lon": -125.85872529613845, "alt_km": 19837.83316495303, "timestamp": "2025-12-17T07:00:47.161633+00:00", "meta": {"OBJECT_NAME": "GPS BIIRM-1 (PRN 17)", "OBJECT_ID": "2005-038A", "EPOCH": "2025-12-15T21:22:37.236864", "MEAN_MOTION": 2.00578274, "ECCENTRICITY": 0.01315557, "INCLINATION": 55.0291, "RA_OF_ASC_NODE": 280.574, "ARG_OF_PERICENTER": 293.6034, "MEAN_ANOMALY": 72.8859, "EPHEMERIS_TYPE": 0, "CLASSIFICATION_TYPE": "U", "NORAD_CAT_ID": 28874, "ELEMENT_SET_NO": 999, "REV_AT_EPOCH": 14816, "BSTAR": 0, "MEAN_MOTION_DOT": -6.8e-07, "MEAN_MOTION_DDOT": 0}, "tle": {"line1": "1 28874U 05038A   25349.89070876 -.00000068  00000+0  00000+0 0  9996", "line2": "2 28874  55.0291 280.5740 0131555 293.6034  72.8859  2.00578274148160"}}, "geometry": {"type": "Point", "coordinates": [-125.85872529613845, -45.99573900715888]}}, {"type": "Feature", "properties": {"norad_id": 29486, "name": "GPS BIIRM-2 (PRN 31)", "group": "gps-ops", "lat": -17.738873834017422, "lon": -8.339501118863149, "alt_km": 20431.119013015974, "timestamp": "2025-12-17T07:00:47.161646+00:00", "meta": {"OBJECT_NAME": "GPS BIIRM-2 (PRN 31)", "OBJECT_ID": "2006-042A", "EPOCH": "2025-12-16T14:07:13.804608", "MEAN_MOTION": 2.00554042, "ECCENTRICITY": 0.0107341, "INCLINATION": 54.6946, "RA_OF_ASC_NODE": 158.588, "ARG_OF_PERICENTER": 52.052, "MEAN_ANOMALY": 1.0135, "EPHEMERIS_TYPE": 0, "CLASSIFICATION_TYPE": "U", "NORAD_CAT_ID": 29486, "ELEMENT_SET_NO": 999, "REV_AT_EPOCH": 14073, "BSTAR": 0, "MEAN_MOTION_DOT": 8.8e-07, "MEAN_MOTION_DDOT": 0}, "tle": {"line1": "1 29486U 06042A   25350.58835422  .00000088  00000+0  00000+0 0  9997", "line2": "2 29486  54.6946 158.5880 0107341  52.0520   1.0135  2.00554042140737"}}, "geometry": {"type": "Point", "coordinates": [-8.339501118863149, -17.738873834017422]}}, {"type": "Feature", "properties": {"norad_id": 29601, "name": "GPS BIIRM-3 (PRN 12)", "group": "gps-ops", "lat": -53.57890899427327, "lon": 113.04508187294365, "alt_km": 20417.78089686363, "timestamp": "2025-12-17T07:00:47.161659+00:00", "meta": {"OBJECT_NAME": "GPS BIIRM-3 (PRN 12)", "OBJECT_ID": "2006-052A", "EPOCH": "2025-12-15T22:30:08.867232", "MEAN_MOTION": 2.00573827, "ECCENTRICITY": 0.00878265, "INCLINATION": 54.9699, "RA_OF_ASC_NODE": 221.2713, "ARG_OF_PERICENTER": 87.4673, "MEAN_ANOMALY": 273.6251, "EPHEMERIS_TYPE": 0, "CLASSIFICATION_TYPE": "U", "NORAD_CAT_ID": 29601, "ELEMENT_SET_NO": 999, "REV_AT_EPOCH": 13973, "BSTAR": 0, "MEAN_MOTION_DOT": 6e-07, "MEAN_MOTION_DDOT": 0}, "tle": {"line1": "1 29601U 06052A   25349.93760263  .00000060  00000+0  00000+0 0  9994", "line2": "2 29601  54.9699 221.2713 0087826  87.4673 273.6251  2.00573827139739"}}, "geometry": {"type": "Point", "coordinates": [113.04508187294365, -53.57890899427327]}}, {"type": "Feature", "properties": {"norad_id": 32260, "name": "GPS BIIRM-4 (PRN 15)", "group": "gps-ops", "lat": 29.651445684513554, "lon": 112.02111505612922, "alt_km": 19880.92970447924, "timestamp": "2025-12-17T07:00:47.161672+00:00", "meta": {"OBJECT_NAME": "GPS BIIRM-4 (PRN 15)", "OBJECT_ID": "2007-047A", "EPOCH": "2025-12-16T05:50:40.703424", "MEAN_MOTION": 2.00564422, "ECCENTRICITY": 0.01640582, "INCLINATION": 53.9575, "RA_OF_ASC_NODE": 87.6137, "ARG_OF_PERICENTER": 85.2876, "MEAN_ANOMALY": 276.573, "EPHEMERIS_TYPE": 0, "CLASSIFICATION_TYPE": "U", "NORAD_CAT_ID": 32260, "ELEMENT_SET_NO": 999, "REV_AT_EPOCH": 13314, "BSTAR": 0, "MEAN_MOTION_DOT": -5.5e-07, "MEAN_MOTION_DDOT": 0}, "tle": {"line1": "1 32260U 07047A   25350.24352666 -.00000055  00000+0  00000+0 0  9999", "line2": "2 32260  53.9575  87.6137 0164058  85.2876 276.5730  2.00564422133148"}}, "geometry": {"type": "Point", "coordinates": [112.02111505612922, 29.651445684513554]}}]}